STARLINK-32841          
1 62865U 25022M   26037.03591927  .00037004  00000+0  12558-2 0  9998
2 62865  53.1576 276.6564 0000994  93.4428 266.6687 15.30188017 57045
STARLINK-32695          
1 62866U 25022N   26037.07274062  .00041653  00000+0  14107-2 0  9998
2 62866  53.1577 276.1714 0001329  79.9547 280.1604 15.30197554 57061
STARLINK-32846          
1 62867U 25022P   26036.96109892  .00029874  00000+0  10163-2 0  9993
2 62867  53.1579 276.8855 0000729 138.8360 221.2695 15.30212817 57042
STARLINK-32822          
1 62868U 25022Q   26037.03908386  .00037447  00000+0  12704-2 0  9996
2 62868  53.1579 276.6725 0001078  92.1336 267.9788 15.30190774 57058
STARLINK-32813          
1 62869U 25022R   26036.92322635  .00024533  00000+0  83724-3 0  9994
2 62869  53.1586 277.3737 0001121  76.0049 284.1076 15.30217331 57037
STARLINK-32861          
1 62870U 25022S   26036.87890345  .00018800  00000+0  64555-3 0  9999
2 62870  53.1570 277.0920 0001241  78.0498 282.0642 15.30185810 57038
STARLINK-32814          
1 62871U 25022T   26037.04119707  .00015453  00000+0  53309-3 0  9992
2 62871  53.1582 276.6894 0001179 100.9037 259.2097 15.30180519 57054
STARLINK-32849          
1 62872U 25022U   26037.06335720  .00039593  00000+0  13419-2 0  9998
2 62872  53.1579 276.8293 0001408  57.0636 303.0500 15.30197640 57058
STARLINK-32833          
1 62873U 25022V   26037.09279023  .00027433  00000+0  93491-3 0  9994
2 62873  53.1553 276.3024 0000628  67.4236 292.6831 15.30200187 57064
STARLINK-32793          
1 62874U 25022W   26037.04647216  .00025835  00000+0  88157-3 0  9990
2 62874  53.1566 276.7268 0001489  37.1798 322.9305 15.30192672 57057
STARLINK-32834          
1 62875U 25022X   26036.96426901  .00034848  00000+0  11825-2 0  9998
2 62875  53.1565 276.9209 0001247 108.8281 251.2855 15.30219623 57048
STARLINK-11371 [DTC]    
1 62879U 25024A   26037.28173100  .00409521  00000+0  30296-2 0  9997
2 62879  42.9996  11.0704 0001313 287.3797  72.6927 15.70924025 58525
STARLINK-11352 [DTC]    
1 62880U 25024B   26037.25002315  .00145264  00000+0  11198-2 0  9996
2 62880  43.0006  10.7407 0001682 295.5938  95.4081 15.70755723  5987
STARLINK-11382 [DTC]    
1 62881U 25024C   26036.94787380  .00128893  00000+0  99161-3 0  9990
2 62881  42.9991  12.8572 0001738 289.7243  70.3437 15.70860730 58475
STARLINK-11432 [DTC]    
1 62882U 25024D   26036.95849177  .00418816  00000+0  30796-2 0  9990
2 62882  43.0001  12.9427 0001896 214.5416 145.5329 15.71041826 58476
STARLINK-11419 [DTC]    
1 62883U 25024E   26037.26048849  .00292961  00000+0  22033-2 0  9999
2 62883  43.0003  10.8951 0002558 251.3435 108.7155 15.70880038 58523
