[{"OBJECT_NAME":"STARLINK-32841","OBJECT_ID":"2025-022M","EPOCH":"2026-02-06T00:51:43.424928","MEAN_MOTION":15.30188017,"ECCENTRICITY":9.945e-5,"INCLINATION":53.1576,"RA_OF_ASC_NODE":276.6564,"ARG_OF_PERICENTER":93.4428,"MEAN_ANOMALY":266.6687,"EPHEMERIS_TYPE":0,"CLASSIFICATION_TYPE":"U","NORAD_CAT_ID":62865,"ELEMENT_SET_NO":999,"REV_AT_EPOCH":5704,"BSTAR":0.0012557599,"MEAN_MOTION_DOT":0.00037004,"MEAN_MOTION_DDOT":0},{"OBJECT_NAME":"STARLINK-32695","OBJECT_ID":"2025-022N","EPOCH":"2026-02-06T01:44:44.789568","MEAN_MOTION":15.30197554,"ECCENTRICITY":0.00013291,"INCLINATION":53.1577,"RA_OF_ASC_NODE":276.1714,"ARG_OF_PERICENTER":79.9547,"MEAN_ANOMALY":280.1604,"EPHEMERIS_TYPE":0,"CLASSIFICATION_TYPE":"U","NORAD_CAT_ID":62866,"ELEMENT_SET_NO":999,"REV_AT_EPOCH":5706,"BSTAR":0.0014106977,"MEAN_MOTION_DOT":0.00041653,"MEAN_MOTION_DDOT":0},{"OBJECT_NAME":"STARLINK-32846","OBJECT_ID":"2025-022P","EPOCH":"2026-02-05T23:03:58.946688","MEAN_MOTION":15.30212817,"ECCENTRICITY":7.292e-5,"INCLINATION":53.1579,"RA_OF_ASC_NODE":276.8855,"ARG_OF_PERICENTER":138.836,"MEAN_ANOMALY":221.2695,"EPHEMERIS_TYPE":0,"CLASSIFICATION_TYPE":"U","NORAD_CAT_ID":62867,"ELEMENT_SET_NO":999,"REV_AT_EPOCH":5704,"BSTAR":0.0010163067,"MEAN_MOTION_DOT":0.00029874,"MEAN_MOTION_DDOT":0},{"OBJECT_NAME":"STARLINK-32822","OBJECT_ID":"2025-022Q","EPOCH":"2026-02-06T00:56:16.845504","MEAN_MOTION":15.30190774,"ECCENTRICITY":0.0001078,"INCLINATION":53.1579,"RA_OF_ASC_NODE":276.6725,"ARG_OF_PERICENTER":92.1336,"MEAN_ANOMALY":267.9788,"EPHEMERIS_TYPE":0,"CLASSIFICATION_TYPE":"U","NORAD_CAT_ID":62868,"ELEMENT_SET_NO":999,"REV_AT_EPOCH":5705,"BSTAR":0.0012704431,"MEAN_MOTION_DOT":0.00037447,"MEAN_MOTION_DDOT":0},{"OBJECT_NAME":"STARLINK-32813","OBJECT_ID":"2025-022R","EPOCH":"2026-02-05T22:09:26.756640","MEAN_MOTION":15.30217331,"ECCENTRICITY":0.0001121,"INCLINATION":53.1586,"RA_OF_ASC_NODE":277.3737,"ARG_OF_PERICENTER":76.0049,"MEAN_ANOMALY":284.1076,"EPHEMERIS_TYPE":0,"CLASSIFICATION_TYPE":"U","NORAD_CAT_ID":62869,"ELEMENT_SET_NO":999,"REV_AT_EPOCH":5703,"BSTAR":0.00083724,"MEAN_MOTION_DOT":0.00024533,"MEAN_MOTION_DDOT":0},{"OBJECT_NAME":"STARLINK-32861","OBJECT_ID":"2025-022S","EPOCH":"2026-02-05T21:05:37.258080","MEAN_MOTION":15.3018581,"ECCENTRICITY":0.0001241,"INCLINATION":53.157,"RA_OF_ASC_NODE":277.092,"ARG_OF_PERICENTER":78.0498,"MEAN_ANOMALY":282.0642,"EPHEMERIS_TYPE":0,"CLASSIFICATION_TYPE":"U","NORAD_CAT_ID":62870,"ELEMENT_SET_NO":999,"REV_AT_EPOCH":5703,"BSTAR":0.00064555,"MEAN_MOTION_DOT":0.000188,"MEAN_MOTION_DDOT":0},{"OBJECT_NAME":"STARLINK-32814","OBJECT_ID":"2025-022T","EPOCH":"2026-02-06T00:59:19.426848","MEAN_MOTION":15.30180519,"ECCENTRICITY":0.00011793,"INCLINATION":53.1582,"RA_OF_ASC_NODE":276.6894,"ARG_OF_PERICENTER":100.9037,"MEAN_ANOMALY":259.2097,"EPHEMERIS_TYPE":0,"CLASSIFICATION_TYPE":"U","NORAD_CAT_ID":62871,"ELEMENT_SET_NO":999,"REV_AT_EPOCH":5705,"BSTAR":0.00053308615,"MEAN_MOTION_DOT":0.00015453,"MEAN_MOTION_DDOT":0},{"OBJECT_NAME":"STARLINK-32849","OBJECT_ID":"2025-022U","EPOCH":"2026-02-06T01:31:14.062080","MEAN_MOTION":15.3019764,"ECCENTRICITY":0.00014084,"INCLINATION":53.1579,"RA_OF_ASC_NODE":276.8293,"ARG_OF_PERICENTER":57.0636,"MEAN_ANOMALY":303.05,"EPHEMERIS_TYPE":0,"CLASSIFICATION_TYPE":"U","NORAD_CAT_ID":62872,"ELEMENT_SET_NO":999,"REV_AT_EPOCH":5705,"BSTAR":0.00134188,"MEAN_MOTION_DOT":0.00039593,"MEAN_MOTION_DDOT":0},{"OBJECT_NAME":"STARLINK-32833","OBJECT_ID":"2025-022V","EPOCH":"2026-02-06T02:13:37.075872","MEAN_MOTION":15.30200187,"ECCENTRICITY":6.28e-5,"INCLINATION":53.1553,"RA_OF_ASC_NODE":276.3024,"ARG_OF_PERICENTER":67.4236,"MEAN_ANOMALY":292.6831,"EPHEMERIS_TYPE":0,"CLASSIFICATION_TYPE":"U","NORAD_CAT_ID":62873,"ELEMENT_SET_NO":999,"REV_AT_EPOCH":5706,"BSTAR":0.00093490601,"MEAN_MOTION_DOT":0.00027433,"MEAN_MOTION_DDOT":0},{"OBJECT_NAME":"STARLINK-32793","OBJECT_ID":"2025-022W","EPOCH":"2026-02-06T01:06:55.194624","MEAN_MOTION":15.30192672,"ECCENTRICITY":0.00014895,"INCLINATION":53.1566,"RA_OF_ASC_NODE":276.7268,"ARG_OF_PERICENTER":37.1798,"MEAN_ANOMALY":322.9305,"EPHEMERIS_TYPE":0,"CLASSIFICATION_TYPE":"U","NORAD_CAT_ID":62874,"ELEMENT_SET_NO":999,"REV_AT_EPOCH":5705,"BSTAR":0.00088157085,"MEAN_MOTION_DOT":0.00025835,"MEAN_MOTION_DDOT":0},{"OBJECT_NAME":"STARLINK-32834","OBJECT_ID":"2025-022X","EPOCH":"2026-02-05T23:08:32.842464","MEAN_MOTION":15.30219623,"ECCENTRICITY":0.00012478,"INCLINATION":53.1565,"RA_OF_ASC_NODE":276.9209,"ARG_OF_PERICENTER":108.8281,"MEAN_ANOMALY":251.2855,"EPHEMERIS_TYPE":0,"CLASSIFICATION_TYPE":"U","NORAD_CAT_ID":62875,"ELEMENT_SET_NO":999,"REV_AT_EPOCH":5704,"BSTAR":0.0011824762,"MEAN_MOTION_DOT":0.00034848,"MEAN_MOTION_DDOT":0},{"OBJECT_NAME":"STARLINK-11371 [DTC]","OBJECT_ID":"2025-024A","EPOCH":"2026-02-06T06:45:41.558400","MEAN_MOTION":15.70924025,"ECCENTRICITY":0.00013137,"INCLINATION":42.9996,"RA_OF_ASC_NODE":11.0704,"ARG_OF_PERICENTER":287.3797,"MEAN_ANOMALY":72.6927,"EPHEMERIS_TYPE":0,"CLASSIFICATION_TYPE":"U","NORAD_CAT_ID":62879,"ELEMENT_SET_NO":999,"REV_AT_EPOCH":5852,"BSTAR":0.003029606,"MEAN_MOTION_DOT":0.00409521,"MEAN_MOTION_DDOT":0},{"OBJECT_NAME":"STARLINK-11352 [DTC]","OBJECT_ID":"2025-024B","EPOCH":"2026-02-06T06:00:02.000160","MEAN_MOTION":15.70755723,"ECCENTRICITY":0.0001682,"INCLINATION":43.0006,"RA_OF_ASC_NODE":10.7407,"ARG_OF_PERICENTER":295.5938,"MEAN_ANOMALY":95.4081,"EPHEMERIS_TYPE":0,"CLASSIFICATION_TYPE":"U","NORAD_CAT_ID":62880,"ELEMENT_SET_NO":999,"REV_AT_EPOCH":598,"BSTAR":0.0011198369,"MEAN_MOTION_DOT":0.00145264,"MEAN_MOTION_DDOT":0},{"OBJECT_NAME":"STARLINK-11382 [DTC]","OBJECT_ID":"2025-024C","EPOCH":"2026-02-05T22:44:56.296320","MEAN_MOTION":15.7086073,"ECCENTRICITY":0.0001738,"INCLINATION":42.9991,"RA_OF_ASC_NODE":12.8572,"ARG_OF_PERICENTER":289.7243,"MEAN_ANOMALY":70.3437,"EPHEMERIS_TYPE":0,"CLASSIFICATION_TYPE":"U","NORAD_CAT_ID":62881,"ELEMENT_SET_NO":999,"REV_AT_EPOCH":5847,"BSTAR":0.00099161,"MEAN_MOTION_DOT":0.00128893,"MEAN_MOTION_DDOT":0},{"OBJECT_NAME":"STARLINK-11432 [DTC]","OBJECT_ID":"2025-024D","EPOCH":"2026-02-05T23:00:13.688928","MEAN_MOTION":15.71041826,"ECCENTRICITY":0.0001896,"INCLINATION":43.0001,"RA_OF_ASC_NODE":12.9427,"ARG_OF_PERICENTER":214.5416,"MEAN_ANOMALY":145.5329,"EPHEMERIS_TYPE":0,"CLASSIFICATION_TYPE":"U","NORAD_CAT_ID":62882,"ELEMENT_SET_NO":999,"REV_AT_EPOCH":5847,"BSTAR":0.0030796,"MEAN_MOTION_DOT":0.00418816,"MEAN_MOTION_DDOT":0},{"OBJECT_NAME":"STARLINK-11419 [DTC]","OBJECT_ID":"2025-024E","EPOCH":"2026-02-06T06:15:06.205536","MEAN_MOTION":15.70880038,"ECCENTRICITY":0.00025585,"INCLINATION":43.0003,"RA_OF_ASC_NODE":10.8951,"ARG_OF_PERICENTER":251.3435,"MEAN_ANOMALY":108.7155,"EPHEMERIS_TYPE":0,"CLASSIFICATION_TYPE":"U","NORAD_CAT_ID":62883,"ELEMENT_SET_NO":999,"REV_AT_EPOCH":5852,"BSTAR":0.0022033255,"MEAN_MOTION_DOT":0.00292961,"MEAN_MOTION_DDOT":0}]
